IRIDIUM 150             
1 43257U 18030J   25272.28364995  .00000384  00000+0  13022-3 0  9992
2 43257  86.3982  39.5143 0002117  86.5802 273.5636 14.34217596392765
IRIDIUM 143             
1 43258U 18030K   25272.75299951  .00000717  00000+0  24904-3 0  9995
2 43258  86.3986  39.4007 0002180  81.3883 278.7560 14.34221556392764
IRIDIUM 161             
1 43478U 18047C   25272.76235280  .00000852  00000+0  24736-3 0  9996
2 43478  86.4556 197.2497 0002253  88.0722 272.0737 14.43287554387571
IRIDIUM 152             
1 43479U 18047D   25272.79548910  .00000425  00000+0  14452-3 0  9997
2 43479  86.4030 197.0969 0002303  85.7036 274.4423 14.34219065385162
IRIDIUM 147             
1 43480U 18047E   25272.80183272  .00000629  00000+0  21743-3 0  9994
2 43480  86.4031 197.0947 0002087  84.7180 275.4254 14.34217215385167
IRIDIUM 110             
1 43481U 18047F   25272.80817389  .00000240  00000+0  78791-4 0  9993
2 43481  86.4035 197.1771 0002055  96.9557 263.1872 14.34218303385154
IRIDIUM 162             
1 43482U 18047G   25272.75605425  .00000843  00000+0  24454-3 0  9999
2 43482  86.4555 197.1466 0002402  91.8243 268.3233 14.43285436387561
IRIDIUM 160             
1 43569U 18061A   25272.75400367  .00000497  00000+0  17026-3 0  9991
2 43569  86.4027 165.6460 0002260  86.5933 273.5521 14.34217782376042
