<?xml version="1.0" encoding="UTF-8"?>
<ndm xmlns:xsi="http://www.w3.org/2001/XMLSchema-instance" xsi:noNamespaceSchemaLocation="https://sanaregistry.org/r/ndmxml_unqualified/ndmxml-2.0.0-master-2.0.xsd">
<omm id="CCSDS_OMM_VERS" version="2.0">
<header><CREATION_DATE/><ORIGINATOR/></header><body><segment><metadata><OBJECT_NAME>IRIDIUM 150</OBJECT_NAME><OBJECT_ID>2018-030J</OBJECT_ID><CENTER_NAME>EARTH</CENTER_NAME><REF_FRAME>TEME</REF_FRAME><TIME_SYSTEM>UTC</TIME_SYSTEM><MEAN_ELEMENT_THEORY>SGP4</MEAN_ELEMENT_THEORY></metadata><data><meanElements><EPOCH>2025-09-29T06:48:27.355680</EPOCH><MEAN_MOTION>14.34217596</MEAN_MOTION><ECCENTRICITY>.00021172</ECCENTRICITY><INCLINATION>86.3982</INCLINATION><RA_OF_ASC_NODE>39.5143</RA_OF_ASC_NODE><ARG_OF_PERICENTER>86.5802</ARG_OF_PERICENTER><MEAN_ANOMALY>273.5636</MEAN_ANOMALY></meanElements><tleParameters><EPHEMERIS_TYPE>0</EPHEMERIS_TYPE><CLASSIFICATION_TYPE>U</CLASSIFICATION_TYPE><NORAD_CAT_ID>43257</NORAD_CAT_ID><ELEMENT_SET_NO>999</ELEMENT_SET_NO><REV_AT_EPOCH>39276</REV_AT_EPOCH><BSTAR>.13022278E-3</BSTAR><MEAN_MOTION_DOT>.384E-5</MEAN_MOTION_DOT><MEAN_MOTION_DDOT>0</MEAN_MOTION_DDOT></tleParameters></data></segment></body></omm>
<omm id="CCSDS_OMM_VERS" version="2.0">
<header><CREATION_DATE/><ORIGINATOR/></header><body><segment><metadata><OBJECT_NAME>IRIDIUM 143</OBJECT_NAME><OBJECT_ID>2018-030K</OBJECT_ID><CENTER_NAME>EARTH</CENTER_NAME><REF_FRAME>TEME</REF_FRAME><TIME_SYSTEM>UTC</TIME_SYSTEM><MEAN_ELEMENT_THEORY>SGP4</MEAN_ELEMENT_THEORY></metadata><data><meanElements><EPOCH>2025-09-29T18:04:19.157664</EPOCH><MEAN_MOTION>14.34221556</MEAN_MOTION><ECCENTRICITY>.000218</ECCENTRICITY><INCLINATION>86.3986</INCLINATION><RA_OF_ASC_NODE>39.4007</RA_OF_ASC_NODE><ARG_OF_PERICENTER>81.3883</ARG_OF_PERICENTER><MEAN_ANOMALY>278.7560</MEAN_ANOMALY></meanElements><tleParameters><EPHEMERIS_TYPE>0</EPHEMERIS_TYPE><CLASSIFICATION_TYPE>U</CLASSIFICATION_TYPE><NORAD_CAT_ID>43258</NORAD_CAT_ID><ELEMENT_SET_NO>999</ELEMENT_SET_NO><REV_AT_EPOCH>39276</REV_AT_EPOCH><BSTAR>.24904E-3</BSTAR><MEAN_MOTION_DOT>.717E-5</MEAN_MOTION_DOT><MEAN_MOTION_DDOT>0</MEAN_MOTION_DDOT></tleParameters></data></segment></body></omm>
<omm id="CCSDS_OMM_VERS" version="2.0">
<header><CREATION_DATE/><ORIGINATOR/></header><body><segment><metadata><OBJECT_NAME>IRIDIUM 161</OBJECT_NAME><OBJECT_ID>2018-047C</OBJECT_ID><CENTER_NAME>EARTH</CENTER_NAME><REF_FRAME>TEME</REF_FRAME><TIME_SYSTEM>UTC</TIME_SYSTEM><MEAN_ELEMENT_THEORY>SGP4</MEAN_ELEMENT_THEORY></metadata><data><meanElements><EPOCH>2025-09-29T18:17:47.281920</EPOCH><MEAN_MOTION>14.43287554</MEAN_MOTION><ECCENTRICITY>.0002253</ECCENTRICITY><INCLINATION>86.4556</INCLINATION><RA_OF_ASC_NODE>197.2497</RA_OF_ASC_NODE><ARG_OF_PERICENTER>88.0722</ARG_OF_PERICENTER><MEAN_ANOMALY>272.0737</MEAN_ANOMALY></meanElements><tleParameters><EPHEMERIS_TYPE>0</EPHEMERIS_TYPE><CLASSIFICATION_TYPE>U</CLASSIFICATION_TYPE><NORAD_CAT_ID>43478</NORAD_CAT_ID><ELEMENT_SET_NO>999</ELEMENT_SET_NO><REV_AT_EPOCH>38757</REV_AT_EPOCH><BSTAR>.24736E-3</BSTAR><MEAN_MOTION_DOT>.852E-5</MEAN_MOTION_DOT><MEAN_MOTION_DDOT>0</MEAN_MOTION_DDOT></tleParameters></data></segment></body></omm>
<omm id="CCSDS_OMM_VERS" version="2.0">
<header><CREATION_DATE/><ORIGINATOR/></header><body><segment><metadata><OBJECT_NAME>IRIDIUM 152</OBJECT_NAME><OBJECT_ID>2018-047D</OBJECT_ID><CENTER_NAME>EARTH</CENTER_NAME><REF_FRAME>TEME</REF_FRAME><TIME_SYSTEM>UTC</TIME_SYSTEM><MEAN_ELEMENT_THEORY>SGP4</MEAN_ELEMENT_THEORY></metadata><data><meanElements><EPOCH>2025-09-29T19:05:30.258240</EPOCH><MEAN_MOTION>14.34219065</MEAN_MOTION><ECCENTRICITY>.0002303</ECCENTRICITY><INCLINATION>86.4030</INCLINATION><RA_OF_ASC_NODE>197.0969</RA_OF_ASC_NODE><ARG_OF_PERICENTER>85.7036</ARG_OF_PERICENTER><MEAN_ANOMALY>274.4423</MEAN_ANOMALY></meanElements><tleParameters><EPHEMERIS_TYPE>0</EPHEMERIS_TYPE><CLASSIFICATION_TYPE>U</CLASSIFICATION_TYPE><NORAD_CAT_ID>43479</NORAD_CAT_ID><ELEMENT_SET_NO>999</ELEMENT_SET_NO><REV_AT_EPOCH>38516</REV_AT_EPOCH><BSTAR>.14452E-3</BSTAR><MEAN_MOTION_DOT>.425E-5</MEAN_MOTION_DOT><MEAN_MOTION_DDOT>0</MEAN_MOTION_DDOT></tleParameters></data></segment></body></omm>
<omm id="CCSDS_OMM_VERS" version="2.0">
<header><CREATION_DATE/><ORIGINATOR/></header><body><segment><metadata><OBJECT_NAME>IRIDIUM 147</OBJECT_NAME><OBJECT_ID>2018-047E</OBJECT_ID><CENTER_NAME>EARTH</CENTER_NAME><REF_FRAME>TEME</REF_FRAME><TIME_SYSTEM>UTC</TIME_SYSTEM><MEAN_ELEMENT_THEORY>SGP4</MEAN_ELEMENT_THEORY></metadata><data><meanElements><EPOCH>2025-09-29T19:14:38.347008</EPOCH><MEAN_MOTION>14.34217215</MEAN_MOTION><ECCENTRICITY>.0002087</ECCENTRICITY><INCLINATION>86.4031</INCLINATION><RA_OF_ASC_NODE>197.0947</RA_OF_ASC_NODE><ARG_OF_PERICENTER>84.7180</ARG_OF_PERICENTER><MEAN_ANOMALY>275.4254</MEAN_ANOMALY></meanElements><tleParameters><EPHEMERIS_TYPE>0</EPHEMERIS_TYPE><CLASSIFICATION_TYPE>U</CLASSIFICATION_TYPE><NORAD_CAT_ID>43480</NORAD_CAT_ID><ELEMENT_SET_NO>999</ELEMENT_SET_NO><REV_AT_EPOCH>38516</REV_AT_EPOCH><BSTAR>.21743E-3</BSTAR><MEAN_MOTION_DOT>.629E-5</MEAN_MOTION_DOT><MEAN_MOTION_DDOT>0</MEAN_MOTION_DDOT></tleParameters></data></segment></body></omm>
<omm id="CCSDS_OMM_VERS" version="2.0">
<header><CREATION_DATE/><ORIGINATOR/></header><body><segment><metadata><OBJECT_NAME>IRIDIUM 110</OBJECT_NAME><OBJECT_ID>2018-047F</OBJECT_ID><CENTER_NAME>EARTH</CENTER_NAME><REF_FRAME>TEME</REF_FRAME><TIME_SYSTEM>UTC</TIME_SYSTEM><MEAN_ELEMENT_THEORY>SGP4</MEAN_ELEMENT_THEORY></metadata><data><meanElements><EPOCH>2025-09-29T19:23:46.224096</EPOCH><MEAN_MOTION>14.34218303</MEAN_MOTION><ECCENTRICITY>.0002055</ECCENTRICITY><INCLINATION>86.4035</INCLINATION><RA_OF_ASC_NODE>197.1771</RA_OF_ASC_NODE><ARG_OF_PERICENTER>96.9557</ARG_OF_PERICENTER><MEAN_ANOMALY>263.1872</MEAN_ANOMALY></meanElements><tleParameters><EPHEMERIS_TYPE>0</EPHEMERIS_TYPE><CLASSIFICATION_TYPE>U</CLASSIFICATION_TYPE><NORAD_CAT_ID>43481</NORAD_CAT_ID><ELEMENT_SET_NO>999</ELEMENT_SET_NO><REV_AT_EPOCH>38515</REV_AT_EPOCH><BSTAR>.78791E-4</BSTAR><MEAN_MOTION_DOT>.24E-5</MEAN_MOTION_DOT><MEAN_MOTION_DDOT>0</MEAN_MOTION_DDOT></tleParameters></data></segment></body></omm>
<omm id="CCSDS_OMM_VERS" version="2.0">
<header><CREATION_DATE/><ORIGINATOR/></header><body><segment><metadata><OBJECT_NAME>IRIDIUM 162</OBJECT_NAME><OBJECT_ID>2018-047G</OBJECT_ID><CENTER_NAME>EARTH</CENTER_NAME><REF_FRAME>TEME</REF_FRAME><TIME_SYSTEM>UTC</TIME_SYSTEM><MEAN_ELEMENT_THEORY>SGP4</MEAN_ELEMENT_THEORY></metadata><data><meanElements><EPOCH>2025-09-29T18:08:43.087200</EPOCH><MEAN_MOTION>14.43285436</MEAN_MOTION><ECCENTRICITY>.0002402</ECCENTRICITY><INCLINATION>86.4555</INCLINATION><RA_OF_ASC_NODE>197.1466</RA_OF_ASC_NODE><ARG_OF_PERICENTER>91.8243</ARG_OF_PERICENTER><MEAN_ANOMALY>268.3233</MEAN_ANOMALY></meanElements><tleParameters><EPHEMERIS_TYPE>0</EPHEMERIS_TYPE><CLASSIFICATION_TYPE>U</CLASSIFICATION_TYPE><NORAD_CAT_ID>43482</NORAD_CAT_ID><ELEMENT_SET_NO>999</ELEMENT_SET_NO><REV_AT_EPOCH>38756</REV_AT_EPOCH><BSTAR>.24454E-3</BSTAR><MEAN_MOTION_DOT>.843E-5</MEAN_MOTION_DOT><MEAN_MOTION_DDOT>0</MEAN_MOTION_DDOT></tleParameters></data></segment></body></omm>
<omm id="CCSDS_OMM_VERS" version="2.0">
<header><CREATION_DATE/><ORIGINATOR/></header><body><segment><metadata><OBJECT_NAME>IRIDIUM 160</OBJECT_NAME><OBJECT_ID>2018-061A</OBJECT_ID><CENTER_NAME>EARTH</CENTER_NAME><REF_FRAME>TEME</REF_FRAME><TIME_SYSTEM>UTC</TIME_SYSTEM><MEAN_ELEMENT_THEORY>SGP4</MEAN_ELEMENT_THEORY></metadata><data><meanElements><EPOCH>2025-09-29T18:05:45.917088</EPOCH><MEAN_MOTION>14.34217782</MEAN_MOTION><ECCENTRICITY>.000226</ECCENTRICITY><INCLINATION>86.4027</INCLINATION><RA_OF_ASC_NODE>165.6460</RA_OF_ASC_NODE><ARG_OF_PERICENTER>86.5933</ARG_OF_PERICENTER><MEAN_ANOMALY>273.5521</MEAN_ANOMALY></meanElements><tleParameters><EPHEMERIS_TYPE>0</EPHEMERIS_TYPE><CLASSIFICATION_TYPE>U</CLASSIFICATION_TYPE><NORAD_CAT_ID>43569</NORAD_CAT_ID><ELEMENT_SET_NO>999</ELEMENT_SET_NO><REV_AT_EPOCH>37604</REV_AT_EPOCH><BSTAR>.17026E-3</BSTAR><MEAN_MOTION_DOT>.497E-5</MEAN_MOTION_DOT><MEAN_MOTION_DDOT>0</MEAN_MOTION_DDOT></tleParameters></data></segment></body></omm>

</ndm>
